ORBCOMM FM115           
1 41186U 15081H   24326.11437514  .00001796  00000+0  39176-3 0  9999
2 41186  46.9995 308.6014 0000616 249.3748 110.7073 14.61676633477321
ORBCOMM FM108           
1 41187U 15081J   24325.34687104  .00002054  00000+0  48455-3 0  9994
2 41187  47.0054  12.7552 0001613  29.0648 331.0327 14.57484170476327
ORBCOMM FM117           
1 41188U 15081K   24325.58778844  .00002152  00000+0  50620-3 0  9999
2 41188  47.0017  10.4560 0001775  58.5591 301.5467 14.57451205476403
ORBCOMM FM116           
1 41189U 15081L   24325.44001611  .00001307  00000+0  32211-3 0  9993
2 41189  47.0014 100.9870 0002450 190.9533 169.1299 14.57438950475196
